STARLINK-5784           
1 56033U 23042AZ  23104.35073102  .00084974  00000+0  64438-3 0  9998
2 56033  43.0021  69.1864 0001894 259.2137 100.8517 15.71371940  3276
STARLINK-5782           
1 56034U 23042BA  23104.35051834  .00109995  00000+0  82945-3 0  9991
2 56034  43.0023  69.1854 0001396 261.6559  98.4151 15.71405819  3279
STARLINK-5792           
1 56035U 23042BB  23104.35083660  .00061218  00000+0  46668-3 0  9991
2 56035  43.0026  69.1859 0001581 257.7354 102.3337 15.71364166  3273
STARLINK-5790           
1 56036U 23042BC  23104.35031160  .00083411  00000+0  63269-3 0  9995
2 56036  43.0022  69.1832 0001491 262.6795  97.3903 15.71373457  3270
STARLINK-5758           
1 56037U 23042BD  23104.35020706  .00061988  00000+0  47202-3 0  9994
2 56037  43.0024  69.1818 0001387 296.0489  64.0236 15.71386725  3274
STARLINK-5793           
1 56038U 23042BE  23104.35041545  .00018522  00000+0  14431-3 0  9993
2 56038  43.0022  69.1847 0001479 260.5053  99.5648 15.71366161  3272
STARLINK-5795           
1 56039U 23042BF  23104.35010080  .00088405  00000+0  66990-3 0  9998
2 56039  43.0020  69.1813 0001565 259.7609 100.3082 15.71375625  3275
STARLINK-5798           
1 56040U 23042BG  23104.34998919  .00133903  00000+0  10051-2 0  9995
2 56040  43.0020  69.1810 0001664 245.6419 114.4276 15.71429003  3278
STARLINK-5800           
1 56041U 23042BH  23104.34969296  .00100509  00000+0  76377-3 0  9992
2 56041  43.0027  69.1785 0001936 254.4560 105.6094 15.71258784  3270
FALCON 9 DEB            
1 56042U 23042BJ  23104.36239347  .00583217  15360-3  11620-2 0  9991
2 56042  43.0110  66.5925 0025077 141.2868 218.9813 15.98403973  3309
FALCON 9 DEB            
1 56043U 23042BK  23104.35354811  .00586672  15809-3  10935-2 0  9999
2 56043  43.0058  66.5122 0023240 145.6270 214.6117 15.99649341  3307
FALCON 9 DEB            
1 56044U 23042BL  23104.33690007  .00583379  15930-3  10097-2 0  9993
2 56044  43.0039  66.3633 0021229 136.4117 223.8443 16.01007461  3304
FALCON 9 DEB            
1 56045U 23042BM  23104.33976965  .00527696  12835-3  97830-3 0  9996
2 56045  42.9997  66.3823 0020714 139.2765 220.9666 15.99855098  3303
ONEWEB-0537             
1 56046U 23043A   23104.58335648 -.01142830  00000+0 -35751-1 0  9997
2 56046  87.3878 135.7475 0014012 190.6276 293.3323 15.35892823  1300
ONEWEB-0538             
1 56047U 23043B   23104.58335648 -.01137579  00000+0 -34963-1 0  9996
2 56047  87.3914 135.7489 0013774 189.4268 302.1571 15.36432923  1304
ONEWEB-0546             
1 56048U 23043C   23104.58335648 -.01134617  00000+0 -34582-1 0  9994
2 56048  87.3909 135.7426 0013328 186.7421 318.6024 15.36692722  1306
ONEWEB-0547             
1 56049U 23043D   23104.54442979 -.00360724  00000+0 -95044-2 0  9997
2 56049  87.4208 135.7502 0009784 140.8197 219.3768 15.39908692  3894
ONEWEB-0548             
1 56050U 23043E   23104.58335648 -.01142040  00000+0 -36525-1 0  9995
2 56050  87.3863 135.7538 0014003 194.2516 268.4672 15.35202956  1308
ONEWEB-0549             
1 56051U 23043F   23104.75001157 -.01318931  00000+0 -38818-1 0  9991
2 56051  87.4034 135.6828 0011107 179.2595 221.7285 15.38261016  3920
ONEWEB-0550             
1 56052U 23043G   23104.75001157 -.01309457  00000+0 -39532-1 0  9999
2 56052  87.3994 135.6819 0012464 180.3543 196.4677 15.37432511  3920
ONEWEB-0551             
1 56053U 23043H   23104.52512107  .00020026  00000+0  59803-3 0  9991
2 56053  87.4355 135.8137 0011419 207.8632 152.2010 15.34430327  2987
ONEWEB-0552             
1 56054U 23043J   23104.58335648 -.01256798  00000+0 -37670-1 0  9997
2 56054  87.4028 135.7456 0013115 184.8059 336.0808 15.37511196  1309
ONEWEB-0553             
1 56055U 23043K   23104.58335648 -.01140560  00000+0 -35070-1 0  9999
2 56055  87.3929 135.7495 0013410 187.7261 311.8359 15.36433874  1304
ONEWEB-0554             
1 56056U 23043L   23104.58335648 -.01114054  00000+0 -33627-1 0  9995
2 56056  87.3956 135.7474 0012938 184.9655 327.5024 15.36950136  1300
ONEWEB-0555             
1 56057U 23043M   23104.58335648 -.01006804  00000+0 -32195-1 0  9998
2 56057  87.3861 135.7497 0013932 195.2388 266.8140 15.35314120  1304
ONEWEB-0557             
1 56058U 23043N   23104.03437495  .00024533  00000+0  60920-3 0  9997
2 56058  87.4210 135.9396 0012450 187.8196 172.2867 15.40130535  2918
ONEWEB-0558             
1 56059U 23043P   23104.47820887 -.00134634  00000+0 -33571-2 0  9994
2 56059  87.4221 135.7768 0010461 173.6485 186.4905 15.40712378  2984
ONEWEB-0559             
1 56060U 23043Q   23104.48177709 -.00507970  00000+0 -13782-1 0  9993
2 56060  87.4212 135.7754 0011520 175.7507 184.3848 15.39555527  2988
ONEWEB-0566             
1 56061U 23043R   23104.48623961 -.00215833  00000+0 -57352-2 0  9996
2 56061  87.4214 135.7805 0008712 187.0746 173.0387 15.39106611  2987
ONEWEB-0568             
1 56062U 23043S   23104.58335648 -.01147863  00000+0 -38436-1 0  9999
2 56062  87.3779 135.7541 0012428 207.2725 200.8810 15.33809220  1306
ONEWEB-0574             
1 56063U 23043T   23104.21723928 -.00071420  00000+0 -17445-2 0  9994
2 56063  87.4185 135.8566 0008949 179.5065 180.6201 15.41120715  2942
ONEWEB-0575             
1 56064U 23043U   23104.58335648 -.01149564  00000+0 -38134-1 0  9996
2 56064  87.3808 135.7593 0012865 205.7230 212.4527 15.34099983  1309
ONEWEB-0576             
1 56065U 23043V   23104.75001157 -.01204921  00000+0 -39594-1 0  9991
2 56065  87.3833 135.7039 0013960 198.7089  87.7606 15.34513763  3921
ONEWEB-0577             
1 56066U 23043W   23104.69753915 -.00217496  00000+0 -59940-2 0  9999
2 56066  87.4236 135.7250 0011141 223.5643 136.4732 15.37963438  3919
ONEWEB-0578             
1 56067U 23043X   23104.75001157 -.01311110  00000+0 -38786-1 0  9994
2 56067  87.4019 135.6786 0011284 179.3557 218.9153 15.38081852  3928
ONEWEB-0579             
1 56068U 23043Y   23104.66958782 -.00404288  00000+0 -10544-1 0  9990
2 56068  87.4217 135.7054 0006981 179.5123 180.6141 15.40419098  3918
ONEWEB-0581             
1 56069U 23043Z   23104.58335648 -.01146300  00000+0 -37520-1 0  9994
2 56069  87.3817 135.7555 0013593 201.9502 231.6006 15.34497847  1307
ONEWEB-0609             
1 56070U 23043AA  23104.58335648 -.01282884  00000+0 -49911-1 0  9991
2 56070  87.4536 135.7767 0009161 181.3208 260.2371 15.28916472  1309
ONEWEB-0613             
1 56071U 23043AB  23104.58335648 -.01324080  00000+0 -54028-1 0  9992
2 56071  87.4523 135.7921 0013579 203.1397  98.5714 15.27380722  1303
ONEWEB-0630             
1 56072U 23043AC  23104.58335648 -.01344609  00000+0 -54988-1 0  9997
2 56072  87.4510 135.7882 0013485 199.2251 116.0052 15.27355854  1305
ONEWEB-0632             
1 56073U 23043AD  23104.58335648 -.01331795  00000+0 -54827-1 0  9992
2 56073  87.4556 135.7707 0008085 190.2055 250.6625 15.27196311  1307
ONEWEB-0633             
1 56074U 23043AE  23104.58335648 -.01353406  00000+0 -54706-1 0  9992
2 56074  87.4519 135.7666 0009075 183.2183 253.7880 15.27831357  1308
ONEWEB-0634             
1 56075U 23043AF  23104.58335648 -.01179765  00000+0 -46779-1 0  9998
2 56075  87.4506 135.7664 0009082 180.1900 257.7643 15.28536913  1306
ONEWEB-0635             
1 56076U 23043AG  23104.58335648 -.01341605  00000+0 -54875-1 0  9999
2 56076  87.4550 135.7990 0013975 197.1934 126.5515 15.27333847  1300
ONEWEB-0636             
1 56077U 23043AH  23104.58335648 -.01360500  00000+0 -57022-1 0  9992
2 56077  87.4576 135.7863 0011199 179.6179 204.0551 15.26625625  1309
ONEWEB-0637             
1 56078U 23043AJ  23104.58335648 -.01341732  00000+0 -53559-1 0  9990
2 56078  87.4488 135.7970 0011450 210.0178  63.9249 15.28176428  1300
ONEWEB-0647             
1 56079U 23043AK  23104.58335648 -.01364496  00000+0 -55934-1 0  9992
2 56079  87.4535 135.7824 0012470 181.0842 200.5784 15.27341745  1308
ONEWEB-0651             
1 56080U 23043AL  23104.58335648 -.01244949  00000+0 -49923-1 0  9995
2 56080  87.4507 135.7815 0013336 191.6405 173.0394 15.27776940  1303
ONEWEB-0718             
1 56081U 23043AM  23104.58335648 -.01341777  00000+0 -53663-1 0  9999
2 56081  87.4515 135.7779 0011519 181.5664 208.5574 15.28113208  1305
GSLV R/B                
1 56082U 23043AN  23104.51459218  .00023315  00000+0  61397-3 0  9990
2 56082  87.4165 135.7839 0022114 315.9103  44.0387 15.38159273  2981
COSMOS 2568             
1 56091U 23045A   23104.63417880  .00046406  00000+0  25870-3 0  9996
2 56091  96.4606 194.2560 0011959 227.0671 271.7110 15.79207401  2480
SL-4 R/B                
1 56092U 23045B   23104.52926732  .00117056  00000+0  57114-3 0  9992
2 56092  96.4639 194.2138 0013767 227.9902 132.0236 15.81888074  2485
STARLINK-6102           
1 56093U 23046A   23104.58335648 -.00864349  00000+0 -12013-1 0  9993
2 56093  43.0001 169.4108 0001352 282.2338 171.2259 15.58604543  1303
STARLINK-6109           
1 56094U 23046B   23104.58335648 -.00864881  00000+0 -12005-1 0  9996
2 56094  42.9998 169.4019 0001346 283.0365 173.6262 15.58639651  1308
STARLINK-6090           
1 56095U 23046C   23104.58335648 -.00863719  00000+0 -11996-1 0  9994
2 56095  43.0002 169.4085 0001362 286.1992 168.2425 15.58620681  1302
STARLINK-6089           
1 56096U 23046D   23104.58335648 -.00865056  00000+0 -12000-1 0  9998
2 56096  43.0003 169.4000 0001279 279.4362 178.2064 15.58656882  1306
STARLINK-6077           
1 56097U 23046E   23104.58335648  .00025406  00000+0  19665-3 0  9990
2 56097  42.9999 168.0511 0001183 264.5095  15.0097 15.71348736  1308
STARLINK-6088           
1 56098U 23046F   23104.58335648 -.00864317  00000+0 -12004-1 0  9993
2 56098  42.9999 169.4047 0001352 283.9630 171.7181 15.58623102  1308
STARLINK-6093           
1 56099U 23046G   23104.58335648 -.00864582  00000+0 -11978-1 0  9997
2 56099  43.0004 169.3962 0001330 281.2113 178.3924 15.58688879  1306
